#dP2022 10  7  0  0  0.00000000      97 __u+U IGS14 FIT  IAC
## 2230 432000.00000000   900.00000000 59859 0.0000000000000
+  116   C06C07C08C09C10C11C12C13C14C16C19C20C21C22C23C24C25
+        C26C27C28C29C30C32C33C34C35C36C37C38C39C40C41C42C43
+        C44C45C46E01E02E03E04E05E07E08E09E10E11E12E13E14E15
+        E18E19E21E24E25E26E27E30E31E33E34E36G01G02G04G05G06
+        G07G08G09G10G11G12G13G14G15G16G17G18G19G20G21G22G23
+        G24G25G26G27G28G29G30G31G32J02J03J04R01R02R03R04R05
+        R07R08R09R11R12R13R14R15R17R18R19R20R21R24  0  0  0
++         7  7  7  7  7  6  7  7  6  7  6  6  5  5  6  5  6
++         6  6  5  6  6  6  6  6  6  6  6  7  6  6  6  5  5
++         6  6  6  4  4  4  4  4  5  4  4  4  4  4  4  5  4
++         5  4  4  4  4  4  4  5  4  4  4  4  3  4  3  3  3
++         4  3  3  4  3  3  3  3  4  4  4  3  3  3  4  3  3
++         3  3  3  3  4  3  4  3  3  9  9 10  7  6  6  6  6
++         6  6  6  6  6  7  6  6  6  6  7  7  6  6  0  0  0
%c M  cc GPS ccc cccc cccc cccc cccc ccccc ccccc ccccc ccccc
%c cc cc ccc ccc cccc cccc cccc cccc ccccc ccccc ccccc ccccc
%f  1.2500000  1.025000000  0.00000000000  0.000000000000000
%f  0.0000000  0.000000000  0.00000000000  0.000000000000000
%i    0    0    0    0      0      0      0      0         0
%i    0    0    0    0      0      0      0      0         0
/* INFORMATION & ANALYSIS CENTER (IAC)            FINAL DATA
/* S/V CLOCKS ARE ALIGNED TO GNSS TIME                      
/* G:C1WC2W R:C1PC2P E:C1XC5X C:C2IC6I J:C1CC2S             
/* PCV:IGS14_2218 OL/AL:FES2004  NONE     YN ORB:CoN CLK:CoN
*  2022 10 07  0 45  0.00000000
PC06 -18969.508774  30498.140571 -22268.869505    902.810119
PC07  -6454.550900  38972.537593 -14462.881414   -241.434066
PC08  -3772.004744  21101.961450  36315.049011    488.828611
PC09 -10504.172773  29098.854541 -28514.340177   -842.167586
PC10   -305.706489  41079.212596  -7925.191840     87.215663
PC11 -10519.606818  20690.181389  15531.577766   -366.312332
PC12 -22481.347144  16476.325408  -1024.740911   -491.846752
PC13   4983.040155  25218.396803  33622.224284    100.111420
PC14   -882.629933  26893.106405   7308.012302    703.348751
PC16 -23076.530201  29918.921876 -18803.637284    131.707765
PC19  -5704.431990 -27246.436909   2083.473047   -818.489183
PC20   6127.946001 -23312.442601 -14078.677526    870.108749
PC21 -15140.404569   4954.717590  22916.778508   -549.419880
PC22 -14750.361490 -15669.329848  17767.717705   -865.370399
PC23  24068.667303  13243.459921  -4917.398696   -433.375116
PC24 -12234.990812  12160.447045 -21935.899219   -490.895868
PC25  10073.374205  18017.795064 -18794.388347      6.019647
PC26 -24763.076425    759.340217 -12818.252458    -17.863246
PC27  24067.928877 -10586.811832   9321.910824     32.029584
PC28  17520.683903   4926.423169  21162.062376     21.366028
PC29   -494.500153 -18553.183392 -20845.435965     23.368443
PC30  16856.697390 -20963.495557  -7401.697417      0.366581
PC32  15128.584749  -4983.301160 -22908.079367   -770.513485
PC33   5789.939188  27222.904275  -1961.251264   -847.349972
PC34 -16091.701965  21195.885888   8415.650707     11.046301
PC35 -16744.256642  -5630.980965 -21615.760985     30.179731
PC36  -8980.463446 -18242.365286  19136.258854   -562.298219
PC37  25310.617109    804.967490  11770.865361   -426.506343
PC38 -12785.518654  19492.339711  35135.282107     29.313859
PC39 -25366.241479  30684.201722 -14167.814914     -0.583214
PC40 -11100.142063  36037.415267 -18646.098304     -5.543526
PC41  14668.902480  16138.591610 -17369.058312   -148.176926
PC42  -6893.916363  22513.195285  15001.720505   -427.412802
PC43   -266.597252  18987.724247  20446.601647     18.199431
PC44 -23731.473146  11238.942306  -9494.542871     73.406189
PC45 -24221.516498 -13041.755076   4613.025951     -6.674264
PC46  10483.416862 -12984.876474  22375.528604     -4.630702
PE01     44.691799 -21954.061951  19858.924988   -541.979527
PE02    147.252910  22062.473935 -19736.135740    329.177913
PE03  -8344.762847  28147.685253  -3745.304958   -607.184277
PE04  -6097.579720 -21553.968437  19349.126369  -1131.151028
PE05 -18217.371893  18331.427475  14427.958080   -136.995700
PE07  17336.910621   1975.095763 -23912.952843   -711.208674
PE08   6100.669420  21446.589797 -19469.918649   -611.092360
PE09 -17150.523429  -2064.552818  24031.449579   -684.240311
PE10 -22151.803266  -8202.369203 -17836.402616   -481.894722
PE11 -28146.916867  -1688.397185  -9018.704639   1905.249540
PE12 -13156.709366 -13127.567601 -23042.693263   -208.473801
PE13  27852.572588   2136.367782   9801.006380    430.660693
PE14  13419.642583 -27577.537315  -2661.968106     20.438092
PE15  12926.265105  13121.479476  23176.865158    715.709885
PE18 -17172.367546  18251.917481  -6372.019380   -891.284969
PE19  10192.550406 -27760.658005   1224.706089  -4334.689928
PE21  14983.562209  -7814.891199  24308.311814   -761.955295
PE24 -22486.569597 -12748.562218 -14407.069689   -877.128824
PE25 -15171.361679   7526.433682 -24263.595631   -589.536061
PE26  25849.203512 -10447.815556  -9960.022087  -1697.596251
PE27  22500.600706  11802.344789  15203.896985   -409.307258
PE30  16100.223694  24594.172736  -3548.256450   -895.670082
PE31 -16685.281999 -24288.971265   2785.529855   -505.164002
PE33   9543.489395 -16295.655276 -22792.244957   -454.450662
PE34  -9293.625105  16327.458928  22861.585524     -8.176673
PE36 -26299.466012   9994.485201   9193.253875   -442.147863
PG01 -10068.935790 -13392.476946 -21002.870757    271.695437
PG02   5506.341979  14635.507663  22107.486203   -643.372264
PG04  -2988.743989 -19809.589860  17391.773134   -107.619517
PG05   2731.555191  21595.484898  14956.237473    -99.417250
PG06 -24193.720841   6951.150752   8647.768854    483.679442
PG07 -23299.410170  -7042.020762  11615.441074    301.194972
PG08   4084.838327 -24245.066141  -9602.513419    -87.719268
PG09 -12190.354867  -9677.685172  21440.573368   -286.644581
PG10  17896.227166   3349.726664 -19296.806517     -6.408571
PG11 -15952.750508  12150.206646  17398.839720    -23.074021
PG12   9153.093937  24391.442823  -5714.534607   -289.248478
PG13 -12679.529107  22951.645319  -3715.854598    401.293019
PG14 -18539.030825  -5388.937132 -18279.409102    -97.533614
PG15   -691.161002  24633.679506  -9952.324176    -23.017316
PG16   4921.487658 -17883.568888  18552.701127   -525.790540
PG17 -17621.448015   5010.325064 -18814.880260    666.285321
PG18  23930.328749   5928.318165  10060.635547     23.613459
PG19 -18932.556042  13906.865439 -12378.795536    220.407173
PG20  -8586.496866  13407.596204  21292.055049    480.465492
PG21   -920.416905 -14908.689814 -21324.686468    158.422040
PG22  17921.871780 -16893.684962  -9289.677439    341.035586
PG23  19562.992907  13031.855817 -12502.284129     -0.808208
PG24   6201.247374  15051.969524 -21353.910984    109.424014
PG25  17202.658903  19835.994845   4592.807635    379.735584
PG26  12156.834940  -9961.716997  21313.496163    231.488940
PG27  12568.848153 -23099.507353   1312.510228    202.039703
PG28 -14533.935072   4049.059049 -21335.562345    332.001102
PG29  10106.955194  11443.159415  21680.306822   -557.602709
PG30 -26685.469120    757.879608    577.271122   -537.223018
PG31  24017.611321  -7336.073781   9181.122959   -195.906113
PG32  17856.984161  -8381.994719 -17542.316289   -255.431331
PJ02 -21081.487648  20487.918105 -25678.746462     -6.629987
PJ03 -30057.926777  28972.833572  11008.531030     -2.530833
PJ04 -26719.179289  27753.673255  23210.113369    111.665557
PR01   8965.416440 -15154.957534 -18465.300284     15.863548
PR02   1768.926339 -25354.213947  -1648.847016    -22.889534
PR03  -6465.029469 -19638.458560  14934.261947     65.020332
PR04 -10626.052648  -3210.927105  22985.530352    160.245719
PR05  -9218.290509  15018.582907  18459.410651    100.815818
PR07   6677.596831  19206.213947 -15405.604336     42.138392
PR08  10739.937645   3076.074010 -22883.841645    -67.534078
PR09   3814.338172  14183.372178 -20814.339748     80.648810
PR11  22450.270497   8867.867741   8238.019569     25.292548
PR12  13187.241007  -4005.550475  21497.269160     21.804119
PR13  -2408.127452 -13455.655111  21525.610308    -27.556999
PR14 -18302.590186 -15750.651213   8265.270191     24.219268
PR15 -22248.299462  -8507.818447  -9107.911677     93.350776
PR17  -8350.049070  -7358.939918 -22937.624873    566.915491
PR18 -20715.261872   3422.838095 -14499.258701     45.890904
PR19 -22902.054605  11213.222420    230.911366   -206.335056
PR20 -10421.765815  14137.060801  18520.938110    -79.738307
PR21   9846.448320   6355.266769  22662.606696   -339.531931
PR24   9230.851165 -14648.615807 -18724.264764    118.835762
EOF
